satname,norad_id,inclination_deg,eccentricity,mean_motion_rev_per_day,perigee_km,apogee_km,l1,l2
STARLINK-1362,45538,53.0525,0.0001457,15.06394133,546.2205136018292,548.2385654114423,1 45538U 20025H   25275.69512731  .00002419  00000+0  18123-3 0  9992,2 45538  53.0525  95.6016 0001457  82.4599 277.6555 15.06394133301284
STARLINK-1368,45540,53.0533,0.0001364,15.063976,546.2742950557649,548.1635321489957,1 45540U 20025K   25277.75654878  .00001161  00000+0  96827-4 0  9994,2 45540  53.0533  86.6274 0001364  91.4789 268.6356 15.06397600301584
STARLINK-1371,45542,53.0538,0.0001401,15.06394592,546.2578890738741,548.1983763840653,1 45542U 20025M   25277.85975113  .00000128  00000+0  27506-4 0  9995,2 45542  53.0538  86.1637 0001401  99.7666 260.3481 15.06394592301604
STARLINK-1372,45543,53.0501,0.0002895,15.06401036,545.2034952610029,549.2132702376148,1 45543U 20025N   25277.76391256  .00000471  00000+0  50536-4 0  9996,2 45543  53.0501  86.5909 0002895  97.5379 262.5939 15.06401036300687
STARLINK-1373,45544,53.0524,9.86e-05,15.06416383,546.4785124409254,547.8441812749261,1 45544U 20025P   25277.84869691 -.00002014  00000+0 -11628-3 0  9994,2 45544  53.0524  86.2161 0000986  79.0009 281.1091 15.06416383301604
STARLINK-1294,45551,53.0516,0.0005881,15.55476289,396.78179501809063,404.7551436311105,1 45551U 20025W   25277.60653230  .00080883  00000+0  11589-2 0  9999,2 45551  53.0516  30.1899 0005881 309.0276  51.0210 15.55476289302377
STARLINK-1323,45553,53.034,0.0004203,16.00117867,271.296074205532,276.88793790802356,1 45553U 20025Y   25277.91667823  .00418420  86134-4  79636-3 0  9995,2 45553  53.0340   7.4659 0004203  37.7228 107.9066 16.00117867  6123
STARLINK-1325,45554,53.0612,0.0006426,15.49102582,414.9819937275579,423.71812409567065,1 45554U 20025Z   25277.59070869  .00114149  00000+0  20440-2 0  9990,2 45554  53.0612  22.6393 0006426  12.5184 347.5982 15.49102582302488
STARLINK-1327,45555,53.0534,0.0001275,15.06391857,546.3535300497106,548.1195002960794,1 45555U 20025AA  25277.82106779  .00004963  00000+0  35190-3 0  9998,2 45555  53.0534  66.3393 0001275  81.5968 278.5165 15.06391857301876
STARLINK-1336,45557,53.0397,0.0001319,15.9497136,287.51487344058114,289.27350436821325,1 45557U 20025AC  25277.91667823  .00402229  75454-4  10201-2 0  9994,2 45557  53.0397  13.4853 0001319  42.4055 353.7408 15.94971360  6060
STARLINK-1342,45558,53.0417,0.0004306,16.16137913,227.2132053325413,232.90418346455772,1 45558U 20025AD  25277.60782554  .05941265  10304+0  57446-2 0  9993,2 45558  53.0417  10.3949 0004306 346.2734  13.8185 16.16137913302635
STARLINK-1356,45564,53.054,0.000143,15.06392517,546.2441642270605,548.2248204738735,1 45564U 20025AK  25277.82473598  .00002068  00000+0  15770-3 0  9990,2 45564  53.0540  66.3208 0001430  91.7694 268.3458 15.06392517301876
STARLINK-1357,45565,53.0635,0.0006533,15.2777996,477.96838741622014,486.93243092504235,1 45565U 20025AL  25277.67447337  .00103080  00000+0  37077-2 0  9995,2 45565  53.0635  56.4592 0006533 182.2359 177.8612 15.27779960302007
STARLINK-1361,45567,53.0541,0.0001268,15.06388309,546.3692506606249,548.125528141778,1 45567U 20025AN  25277.71047219  .00000211  00000+0  33082-4 0  9993,2 45567  53.0541  66.8353 0001268  93.7686 266.3448 15.06388309301868
STARLINK-1363,45568,53.0536,0.0001429,15.0639985,546.222385292087,548.2016500413356,1 45568U 20025AP  25276.46465044  .00001011  00000+0  86731-4 0  9993,2 45568  53.0536  72.6686 0001429  80.4178 279.6972 15.06399850301665
STARLINK-1366,45569,53.0544,8.09e-05,15.06395795,546.6641839466683,547.784707428581,1 45569U 20025AQ  25277.71417490  .00002144  00000+0  16280-3 0  9994,2 45569  53.0544  66.8169 0000809  80.2834 279.8247 15.06395795301856
STARLINK-1376,45570,53.0535,0.0001302,15.06397745,546.3167879150315,548.1201504792107,1 45570U 20025AR  25275.84906893  .00002271  00000+0  17131-3 0  9995,2 45570  53.0535  75.1920 0001302  84.9206 275.1931 15.06397745301574
STARLINK-1320,45572,53.0603,0.0007752,15.38402195,445.53985107380595,456.1274871992355,1 45572U 20025AT  25277.66312336  .00102823  00000+0  26471-2 0  9992,2 45572  53.0603  16.8049 0007752 257.4992 102.5143 15.38402195302570
STARLINK-1321,45573,53.0548,0.0001824,15.06406737,545.9277302697365,548.4540898913328,1 45573U 20025AU  25277.82564411  .00003578  00000+0  25895-3 0  9991,2 45573  53.0548  56.3190 0001824  99.6291 260.4904 15.06406737301712
STARLINK-1328,45576,53.0532,0.0006004,15.59448576,385.1887782967224,393.3150589101806,1 45576U 20025AX  25277.91667823  .00152942  00000+0  18668-2 0  9994,2 45576  53.0532  43.0317 0006004 295.1412 357.5721 15.59448576  5974
STARLINK-1331,45578,53.0534,0.0001207,15.06392998,546.3971259817399,548.0689103041204,1 45578U 20025AZ  25277.80354573  .00001857  00000+0  14355-3 0  9997,2 45578  53.0534  56.4156 0001207  86.4619 273.6508 15.06392998302022
STARLINK-1333,45580,53.0555,0.0001367,15.0639677,546.2747609396283,548.1681539418933,1 45580U 20025BB  25277.80999583 -.00000199  00000+0  55539-5 0  9996,2 45580  53.0555  66.3900 0001367  78.1106 282.0037 15.06396770301876
STARLINK-1335,45581,53.0546,3.47e-05,15.06383999,547.0202878361188,547.5009104294995,1 45581U 20025BC  25277.68190736 -.00000215  00000+0  44617-5 0  9990,2 45581  53.0546  56.9632 0000347  46.7556 313.3461 15.06383999301992
STARLINK-1337,45582,53.0541,0.000131,15.06357918,546.4332986526779,548.2477737671652,1 45582U 20025BD  25275.84631482 -.00005289  00000+0 -33684-3 0  9992,2 45582  53.0541  65.2048 0001310  94.5392 265.5746 15.06357918301718
STARLINK-1347,45586,53.0546,0.0005264,15.27226001,480.4970146877349,487.72158759357626,1 45586U 20025BH  25277.65832713  .00100520  00000+0  36793-2 0  9992,2 45586  53.0546  46.8859 0005264 201.6553 158.4223 15.27226001302121
STARLINK-1360,45588,53.0484,0.0005405,15.69504487,356.67278087117484,363.95704739035136,1 45588U 20025BK  25277.62835919  .00097362  00000+0  80532-3 0  9992,2 45588  53.0484 334.0276 0005405  23.1342 336.9917 15.69504487303159
STARLINK-1364,45589,53.0542,8.01e-05,15.06444545,546.5203278088939,547.6297467772683,1 45589U 20025BL  25276.38073781  .00016254  00000+0  11063-2 0  9999,2 45589  53.0542  62.8072 0000801  84.9543 275.1537 15.06444545301797
STARLINK-1365,45590,53.0535,0.0001361,15.06401514,546.2643784430138,548.1494570574259,1 45590U 20025BM  25277.85606539  .00001192  00000+0  98885-4 0  9991,2 45590  53.0535  86.1812 0001361  89.1296 270.9849 15.06401514301615
STARLINK-1443,45660,53.0544,0.0001929,15.06390321,545.905317378897,548.5771282972682,1 45660U 20035D   25277.64228189  .00002989  00000+0  21951-3 0  9992,2 45660  53.0544  47.1423 0001929  92.3833 267.7377 15.06390321295212
STARLINK-1446,45663,53.0271,0.0003588,15.30699057,471.2669318144317,476.1838282583467,1 45663U 20035G   25277.64253984  .00028216  00000+0  94630-3 0  9991,2 45663  53.0271  14.9616 0003588 177.3126 182.7893 15.30699057295663
STARLINK-1448,45665,53.0548,0.0001162,15.06397338,546.4149901464252,548.0244430473613,1 45665U 20035J   25277.77866522  .00000989  00000+0  85308-4 0  9995,2 45665  53.0548  46.5261 0001162  89.0206 271.0916 15.06397338295223
STARLINK-1451,45668,53.0539,0.0001607,15.06394299,546.1161244161485,548.341937058427,1 45668U 20035M   25277.64968446  .00001509  00000+0  12019-3 0  9999,2 45668  53.0539  47.4246 0001607  94.6410 265.4762 15.06394299295210
STARLINK-1452,45669,53.0407,0.0007366,15.23961524,488.84360151376586,498.9674945955603,1 45669U 20035N   25277.62508778  .00097248  00000+0  39270-2 0  9998,2 45669  53.0407  32.0525 0007366 276.5387  83.4771 15.23961524295428
STARLINK-1453,45670,53.056,0.0002074,15.0637418,545.8543599461891,548.727027353516,1 45670U 20035P   25277.65980873  .00001634  00000+0  12870-3 0  9995,2 45670  53.0560  17.0667 0002074  84.8519 275.2706 15.06374180295525
STARLINK-1454,45671,53.0549,0.0001589,15.06395713,546.1242570333425,548.3251369806503,1 45671U 20035Q   25277.80445896  .00003340  00000+0  24302-3 0  9993,2 45671  53.0549  46.4177 0001589 101.5865 258.5302 15.06395713295224
STARLINK-1456,45673,53.0544,0.0001171,15.06393377,546.4208958606587,548.0428172468628,1 45673U 20035S   25277.75285348  .00000686  00000+0  64956-4 0  9993,2 45673  53.0544  46.6473 0001171  86.3350 273.7773 15.06393377295234
STARLINK-1457,45674,53.054,0.0001025,15.0635894,546.6275426566563,548.0472649094318,1 45674U 20035T   25276.36694104 -.00005304  00000+0 -33786-3 0  9994,2 45674  53.0540  52.8674 0001025  88.6184 271.4923 15.06358940294992
STARLINK-1458,45675,53.0539,0.0001485,15.06404392,546.1696848616239,548.2265093854703,1 45675U 20035U   25276.42223959  .00010624  00000+0  73098-3 0  9997,2 45675  53.0539  52.6173 0001485  91.7337 268.3822 15.06404392294994
STARLINK-1460,45676,53.0537,0.0001323,15.06384413,546.3431003257683,548.1755601947552,1 45676U 20035V   25277.65334064 -.00001525  00000+0 -83520-4 0  9998,2 45676  53.0537  47.0907 0001323  92.8478 267.2663 15.06384413295178
STARLINK-1392,45677,53.0562,7.72e-05,15.06398488,546.6815547379638,547.7508292708089,1 45677U 20035W   25277.66439380 -.00006431  00000+0 -41324-3 0  9993,2 45677  53.0562  47.0438 0000772  77.1037 283.0039 15.06398488295215
STARLINK-1394,45679,53.054,0.0001444,15.06384883,546.2578627314069,548.2579167755675,1 45679U 20035Y   25277.72798102  .00006874  00000+0  48014-3 0  9994,2 45679  53.0540  36.7547 0001444 107.9149 252.1997 15.06384883295362
STARLINK-1402,45685,53.056,0.0001559,15.0637279,546.2152790830169,548.3746287662507,1 45685U 20035AE  25277.49337544 -.00003585  00000+0 -22206-3 0  9997,2 45685  53.0560  32.2320 0001559 100.9607 259.1557 15.06372790295419
STARLINK-1404,45686,53.0552,0.0001503,15.06386299,546.2126636486,548.2944360478859,1 45686U 20035AF  25277.75378895  .00000002  00000+0  19060-4 0  9995,2 45686  53.0552  36.6421 0001503  94.2992 265.8168 15.06386299295378
